1 25544U 98067A   24278.14066741  .00055082  00000-0  95948-3 0  9990
2 25544  51.6369 135.7187 0007041  58.8614  84.9238 15.50181475475443
1 25544U 98067A   24278.01152289  .00096343  00000-0  16638-2 0  9992
2 25544  51.6367 136.3595 0007090  58.4714  84.1304 15.50175965475423
1 25544U 98067A   24277.10775935  .00053062  00000-0  92694-3 0  9998
2 25544  51.6369 140.8374 0006627  56.0033  79.8803 15.50119066475282
1 25544U 98067A   24276.82557804  .00032815  00000-0  57846-3 0  9992
2 25544  51.6361 142.2368 0007054  54.4706 305.6940 15.50081702475240
1 25544U 98067A   24276.51581177  .00028880  00000-0  51044-3 0  9999
2 25544  51.6389 143.7648 0007530  53.7899  16.6842 15.50071376475191
1 25544U 98067A   24276.37395833  .00047432  00000-0  83119-3 0  9997
2 25544  51.6382 144.4720 0007356  54.4438 303.9262 15.50074020475160
1 25544U 98067A   24276.14094696  .00059332  00000-0  10367-2 0  9991
2 25544  51.6375 145.6259 0007226  53.2509  84.0093 15.50060913475136
1 25544U 98067A   24276.01287800  .00061821  00000-0  10801-2 0  9997
2 25544  51.6367 146.2606 0007211  54.1895  87.9492 15.50045663475110
1 25544U 98067A   24275.53614324  .00024635  00000-0  43781-3 0  9994
2 25544  51.6362 148.6261 0007140  50.6287 309.5333 15.50009885475040
1 25544U 98067A   24275.11342934  .00025652  00000-0  45562-3 0  9992
2 25544  51.6388 150.7184 0007070  47.8248 112.0430 15.50002848474971
1 25544U 98067A   24275.04592270  .00030250  00000-0  53574-3 0  9996
2 25544  51.6382 151.0497 0007471  49.2119  93.7160 15.49989390474962
1 25544U 98067A   24274.50455490  .00031827  00000-0  56373-3 0  9999
2 25544  51.6367 153.7358 0007188  46.4178 313.7407 15.49960791474883
